ONEWEB-0512             
1 54130U 22138T   25166.12759268  .00000056  00000+0  10710-3 0  9991
2 54130  87.9223  17.9618 0001629  99.3978 260.7339 13.19726650128394
ONEWEB-0513             
1 54131U 22138U   25166.59062517  .00000060  00000+0  11687-3 0  9996
2 54131  87.9219  17.8375 0001580 100.3568 259.7743 13.20262666129216
ONEWEB-0514             
1 54132U 22138V   25166.52247966 -.00000503  00000+0 -12894-2 0  9997
2 54132  87.9218  17.8502 0002054  81.6906 278.4460 13.19721462129331
ONEWEB-0515             
1 54133U 22138W   25166.45599198  .00000114  00000+0  24837-3 0  9994
2 54133  87.9259 347.4528 0002674  78.9000 281.2434 13.20772782130898
ONEWEB-0516             
1 54134U 22138X   25166.57302035 -.00000013  00000+0 -65255-4 0  9990
2 54134  87.9223  17.8763 0001908  89.9382 270.1970 13.19726773128473
ONEWEB-0517             
1 54135U 22138Y   25166.32503432  .00000039  00000+0  65883-4 0  9991
2 54135  87.9216  17.8847 0001510  81.2806 278.8498 13.19726702128443
ONEWEB-0518             
1 54136U 22138Z   25166.11653936 -.00000092  00000+0 -26221-3 0  9997
2 54136  87.9222  17.9624 0001805  92.3842 267.7498 13.19726282128412
ONEWEB-0519             
1 54137U 22138AA  25166.14180715  .00000115  00000+0  25512-3 0  9997
2 54137  87.9214  17.9141 0001546  83.9146 276.2163 13.19726714128428
